start=new Date('%Y-%m-41T00:00:00.000Z').valueOf();
sats=[{"ECCENTRICITY":"0.00008110","OBJECT_TYPE":"PAYLOAD","RA_OF_ASC_NODE":"323.3423","CENTER_NAME":"EARTH","CLASSIFICATION_TYPE":"U","SEMIMAJOR_AXIS":"6925.368","TIME_SYSTEM":"UTC","TLE_LINE1":"1 47375U 21005AC  21232.52924366  .00000948  00000-0  82556-4 0  9992","BSTAR":"0.00008255600000","APOAPSIS":"547.795","ARG_OF_PERICENTER":"122.8065","GP_ID":"183155043","DECAY_DATE":null,"OBJECT_ID":"2021-005AC","FILE":"3100512","NORAD_CAT_ID":"47375","RCS_SIZE":"LARGE","COUNTRY_CODE":"US","MEAN_ELEMENT_THEORY":"SGP4","LAUNCH_DATE":"2021-01-20","REV_AT_EPOCH":"3251","PERIAPSIS":"546.672","REF_FRAME":"TEME","SITE":"AFETR","INCLINATION":"53.0578","MEAN_ANOMALY":"237.3002","MEAN_MOTION_DDOT":"0.0000000000000","EPHEMERIS_TYPE":"0","TLE_LINE2":"2 47375  53.0578 323.3423 0000811 122.8065 237.3002 15.06393497 32515","EPOCH":"2021-08-20T12:42:06.652224","PERIOD":"95.593","ELEMENT_SET_NO":"999","MEAN_MOTION":"15.06393497","OBJECT_NAME":"STARLINK-2094","MEAN_MOTION_DOT":"0.00000948"},{"ARG_OF_PERICENTER":"101.0887","APOAPSIS":"547.828","GP_ID":"183156295","FILE":"3100512","OBJECT_ID":"2021-005AD","DECAY_DATE":null,"OBJECT_TYPE":"PAYLOAD","ECCENTRICITY":"0.00008660","CLASSIFICATION_TYPE":"U","CENTER_NAME":"EARTH","RA_OF_ASC_NODE":"322.7311","SEMIMAJOR_AXIS":"6925.363","BSTAR":"0.00008429400000","TLE_LINE1":"1 47376U 21005AD  21232.66562107  .00000974  00000-0  84294-4 0  9999","TIME_SYSTEM":"UTC","TLE_LINE2":"2 47376  53.0566 322.7311 0000866 101.0887 259.0200 15.06395208 32538","EPHEMERIS_TYPE":"0","MEAN_MOTION_DDOT":"0.0000000000000","EPOCH":"2021-08-20T15:58:29.660448","OBJECT_NAME":"STARLINK-2096","MEAN_MOTION":"15.06395208","ELEMENT_SET_NO":"999","PERIOD":"95.592","MEAN_MOTION_DOT":"0.00000974","NORAD_CAT_ID":"47376","MEAN_ELEMENT_THEORY":"SGP4","LAUNCH_DATE":"2021-01-20","REV_AT_EPOCH":"3253","COUNTRY_CODE":"US","RCS_SIZE":"LARGE","REF_FRAME":"TEME","SITE":"AFETR","PERIAPSIS":"546.629","MEAN_ANOMALY":"259.0200","INCLINATION":"53.0566"},{"INCLINATION":"53.0562","MEAN_ANOMALY":"238.6987","PERIAPSIS":"546.762","REF_FRAME":"TEME","SITE":"AFETR","RCS_SIZE":"LARGE","COUNTRY_CODE":"US","LAUNCH_DATE":"2021-01-20","MEAN_ELEMENT_THEORY":"SGP4","REV_AT_EPOCH":"3254","NORAD_CAT_ID":"47377","MEAN_MOTION_DOT":"0.00000599","PERIOD":"95.593","ELEMENT_SET_NO":"999","OBJECT_NAME":"STARLINK-2097","MEAN_MOTION":"15.06394124","EPOCH":"2021-08-20T17:22:04.016640","MEAN_MOTION_DDOT":"0.0000000000000","EPHEMERIS_TYPE":"0","TLE_LINE2":"2 47377  53.0562 322.4791 0000678 121.4068 238.6987 15.06394124 32544","TIME_SYSTEM":"UTC","TLE_LINE1":"1 47377U 21005AE  21232.72365760  .00000599  00000-0  59079-4 0  9999","BSTAR":"0.00005907900000","SEMIMAJOR_AXIS":"6925.367","RA_OF_ASC_NODE":"322.4791","CENTER_NAME":"EARTH","CLASSIFICATION_TYPE":"U","ECCENTRICITY":"0.00006780","OBJECT_TYPE":"PAYLOAD","DECAY_DATE":null,"OBJECT_ID":"2021-005AE","FILE":"3100512","GP_ID":"183156045","APOAPSIS":"547.701","ARG_OF_PERICENTER":"121.4068"},{"OBJECT_TYPE":"PAYLOAD","ECCENTRICITY":"0.00007190","CLASSIFICATION_TYPE":"U","CENTER_NAME":"EARTH","RA_OF_ASC_NODE":"283.1204","SEMIMAJOR_AXIS":"6925.360","BSTAR":"0.00005530100000","TIME_SYSTEM":"UTC","TLE_LINE1":"1 47378U 21005AF  21232.57715869  .00000543  00000-0  55301-4 0  9995","ARG_OF_PERICENTER":"97.4434","APOAPSIS":"547.723","GP_ID":"183155294","FILE":"3100512","OBJECT_ID":"2021-005AF","DECAY_DATE":null,"NORAD_CAT_ID":"47378","LAUNCH_DATE":"2021-01-20","MEAN_ELEMENT_THEORY":"SGP4","REV_AT_EPOCH":"3308","RCS_SIZE":"LARGE","COUNTRY_CODE":"US","REF_FRAME":"TEME","SITE":"AFETR","PERIAPSIS":"546.727","MEAN_ANOMALY":"262.6637","INCLINATION":"53.0538","TLE_LINE2":"2 47378  53.0538 283.1204 0000719  97.4434 262.6637 15.06396216 33088","EPHEMERIS_TYPE":"0","MEAN_MOTION_DDOT":"0.0000000000000","EPOCH":"2021-08-20T13:51:06.510816","OBJECT_NAME":"STARLINK-2098","MEAN_MOTION":"15.06396216","ELEMENT_SET_NO":"999","PERIOD":"95.592","MEAN_MOTION_DOT":"0.00000543"},{"DECAY_DATE":null,"OBJECT_ID":"2021-005AG","FILE":"3100602","GP_ID":"183159289","APOAPSIS":"547.378","ARG_OF_PERICENTER":"122.0245","TIME_SYSTEM":"UTC","TLE_LINE1":"1 47379U 21005AG  21232.84991771  .00001057  00000-0  89832-4 0  9991","BSTAR":"0.00008983200000","SEMIMAJOR_AXIS":"6925.355","RA_OF_ASC_NODE":"281.9049","CENTER_NAME":"EARTH","CLASSIFICATION_TYPE":"U","ECCENTRICITY":"0.00002280","OBJECT_TYPE":"PAYLOAD","MEAN_MOTION_DOT":"0.00001057","PERIOD":"95.592","ELEMENT_SET_NO":"999","OBJECT_NAME":"STARLINK-2099","MEAN_MOTION":"15.06397942","EPOCH":"2021-08-20T20:23:52.890144","MEAN_MOTION_DDOT":"0.0000000000000","TLE_LINE2":"2 47379  53.0521 281.9049 0000228 122.0245 238.0766 15.06397942 33126","EPHEMERIS_TYPE":"0","INCLINATION":"53.0521","MEAN_ANOMALY":"238.0766","PERIAPSIS":"547.062","REF_FRAME":"TEME","SITE":"AFETR","RCS_SIZE":"LARGE","COUNTRY_CODE":"US","LAUNCH_DATE":"2021-01-20","MEAN_ELEMENT_THEORY":"SGP4","REV_AT_EPOCH":"3312","NORAD_CAT_ID":"47379"},{"APOAPSIS":"547.676","ARG_OF_PERICENTER":"145.3894","OBJECT_ID":"2021-005AH","DECAY_DATE":null,"FILE":"3100512","GP_ID":"183155795","CENTER_NAME":"EARTH","RA_OF_ASC_NODE":"292.9688","CLASSIFICATION_TYPE":"U","ECCENTRICITY":"0.00006310","OBJECT_TYPE":"PAYLOAD","TLE_LINE1":"1 47380U 21005AH  21232.61313207  .00000585  00000-0  58161-4 0  9996","TIME_SYSTEM":"UTC","BSTAR":"0.00005816100000","SEMIMAJOR_AXIS":"6925.374","EPOCH":"2021-08-20T14:42:54.610848","TLE_LINE2":"2 47380  53.0570 292.9688 0000631 145.3894 214.7136 15.06391732 32952","EPHEMERIS_TYPE":"0","MEAN_MOTION_DDOT":"0.0000000000000","MEAN_MOTION_DOT":"0.00000585","ELEMENT_SET_NO":"999","PERIOD":"95.593","MEAN_MOTION":"15.06391732","OBJECT_NAME":"STARLINK-2100","MEAN_ELEMENT_THEORY":"SGP4","LAUNCH_DATE":"2021-01-20","REV_AT_EPOCH":"3295","RCS_SIZE":"LARGE","COUNTRY_CODE":"US","NORAD_CAT_ID":"47380","MEAN_ANOMALY":"214.7136","INCLINATION":"53.0570","PERIAPSIS":"546.802","REF_FRAME":"TEME","SITE":"AFETR"},{"TIME_SYSTEM":"UTC","TLE_LINE1":"1 47381U 21005AJ  21232.68725588 -.00001262  00000-0 -65916-4 0  9994","BSTAR":"-0.00006591600000","SEMIMAJOR_AXIS":"6925.382","RA_OF_ASC_NODE":"297.6317","CENTER_NAME":"EARTH","CLASSIFICATION_TYPE":"U","ECCENTRICITY":"0.00005000","OBJECT_TYPE":"PAYLOAD","DECAY_DATE":null,"OBJECT_ID":"2021-005AJ","FILE":"3100512","GP_ID":"183156546","APOAPSIS":"547.593","ARG_OF_PERICENTER":"163.7721","INCLINATION":"53.0573","MEAN_ANOMALY":"196.3284","PERIAPSIS":"546.901","SITE":"AFETR","REF_FRAME":"TEME","COUNTRY_CODE":"US","RCS_SIZE":"LARGE","MEAN_ELEMENT_THEORY":"SGP4","LAUNCH_DATE":"2021-01-20","REV_AT_EPOCH":"3289","NORAD_CAT_ID":"47381","MEAN_MOTION_DOT":"-0.00001262","PERIOD":"95.593","ELEMENT_SET_NO":"999","OBJECT_NAME":"STARLINK-2101","MEAN_MOTION":"15.06389087","EPOCH":"2021-08-20T16:29:38.908032","MEAN_MOTION_DDOT":"0.0000000000000","TLE_LINE2":"2 47381  53.0573 297.6317 0000500 163.7721 196.3284 15.06389087 32897","EPHEMERIS_TYPE":"0"},{"ECCENTRICITY":"0.00005450","OBJECT_TYPE":"PAYLOAD","RA_OF_ASC_NODE":"293.3133","CENTER_NAME":"EARTH","CLASSIFICATION_TYPE":"U","SEMIMAJOR_AXIS":"6925.386","TIME_SYSTEM":"UTC","TLE_LINE1":"1 47382U 21005AK  21232.53938166 -.00001316  00000-0 -69533-4 0  9996","BSTAR":"-0.00006953300000","APOAPSIS":"547.629","ARG_OF_PERICENTER":"107.2506","GP_ID":"183154794","DECAY_DATE":null,"OBJECT_ID":"2021-005AK","FILE":"3100512","NORAD_CAT_ID":"47382","RCS_SIZE":"LARGE","COUNTRY_CODE":"US","MEAN_ELEMENT_THEORY":"SGP4","LAUNCH_DATE":"2021-01-20","REV_AT_EPOCH":"3293","PERIAPSIS":"546.874","REF_FRAME":"TEME","SITE":"AFETR","INCLINATION":"53.0488","MEAN_ANOMALY":"252.8543","MEAN_MOTION_DDOT":"0.0000000000000","TLE_LINE2":"2 47382  53.0488 293.3133 0000545 107.2506 252.8543 15.06387642 32931","EPHEMERIS_TYPE":"0","EPOCH":"2021-08-20T12:56:42.575424","PERIOD":"95.593","ELEMENT_SET_NO":"999","MEAN_MOTION":"15.06387642","OBJECT_NAME":"STARLINK-2102","MEAN_MOTION_DOT":"-0.00001316"},{"COUNTRY_CODE":"US","RCS_SIZE":"LARGE","REV_AT_EPOCH":"3309","LAUNCH_DATE":"2021-01-20","MEAN_ELEMENT_THEORY":"SGP4","NORAD_CAT_ID":"47383","INCLINATION":"53.0542","MEAN_ANOMALY":"278.1840","SITE":"AFETR","REF_FRAME":"TEME","PERIAPSIS":"546.641","EPOCH":"2021-08-20T14:58:45.909408","MEAN_MOTION_DDOT":"0.0000000000000","TLE_LINE2":"2 47383  53.0542 282.9247 0000911  81.9252 278.1840 15.06380852 33091","EPHEMERIS_TYPE":"0","MEAN_MOTION_DOT":"0.00000400","OBJECT_NAME":"STARLINK-2103","MEAN_MOTION":"15.06380852","PERIOD":"95.593","ELEMENT_SET_NO":"999","CLASSIFICATION_TYPE":"U","RA_OF_ASC_NODE":"282.9247","CENTER_NAME":"EARTH","OBJECT_TYPE":"PAYLOAD","ECCENTRICITY":"0.00009110","BSTAR":"0.00004572200000","TIME_SYSTEM":"UTC","TLE_LINE1":"1 47383U 21005AL  21232.62414247  .00000400  00000-0  45722-4 0  9991","SEMIMAJOR_AXIS":"6925.407","ARG_OF_PERICENTER":"81.9252","APOAPSIS":"547.903","FILE":"3100512","DECAY_DATE":null,"OBJECT_ID":"2021-005AL","GP_ID":"183155044"},{"COUNTRY_CODE":"US","RCS_SIZE":"LARGE","LAUNCH_DATE":"2021-01-20","MEAN_ELEMENT_THEORY":"SGP4","REV_AT_EPOCH":"3363","NORAD_CAT_ID":"47384","INCLINATION":"53.0548","MEAN_ANOMALY":"228.2119","PERIAPSIS":"546.864","SITE":"AFETR","REF_FRAME":"TEME","EPOCH":"2021-08-21T02:22:07.635072","MEAN_MOTION_DDOT":"0.0000000000000","EPHEMERIS_TYPE":"0","TLE_LINE2":"2 47384  53.0548 290.7956 0000541 131.8916 228.2119 15.06391729 33633","MEAN_MOTION_DOT":"0.00000569","PERIOD":"95.593","ELEMENT_SET_NO":"999","MEAN_MOTION":"15.06391729","OBJECT_NAME":"STARLINK-2104","RA_OF_ASC_NODE":"290.7956","CENTER_NAME":"EARTH","CLASSIFICATION_TYPE":"U","ECCENTRICITY":"0.00005410","OBJECT_TYPE":"PAYLOAD","TLE_LINE1":"1 47384U 21005AM  21233.09869948  .00000569  00000-0  57069-4 0  9999","TIME_SYSTEM":"UTC","BSTAR":"0.00005706900000","SEMIMAJOR_AXIS":"6925.374","APOAPSIS":"547.614","ARG_OF_PERICENTER":"131.8916","DECAY_DATE":null,"OBJECT_ID":"2021-005AM","FILE":"3100604","GP_ID":"183159817"}];
